EXO-0                   
1 59175U 23174DK  26068.71046781  .00011582  00000+0  36716-3 0  9992
2 59175  97.3864 148.9039 0009878 157.1125 203.0559 15.32821991129797
STARLINK-32735          
1 63044U 25034R   26068.84404493  .00037524  00000+0  12729-2 0  9992
2 63044  53.1570 269.9641 0001296  88.0091 272.1058 15.30194059 58938
